FENGYUN 1C DEB          
1 30887U 99025AXZ 17345.30983154  .00000357  00000-0  94021-4 0  9999
2 30887  98.7632  18.3203 0307679 325.6832  32.4806 14.31333751562109
